{"type": "FeatureCollection", "features": [ {"type": "Feature", "properties": {"norad_id": 65304, "name": "DRAGON CRS-33", "group": "stations", "lat": 40.12603890207884, "lon": 151.13527984772193, "alt_km": 414.04417938441657, "timestamp": "2025-12-19T10:49:59.950091+00:00", "meta": {"OBJECT_NAME": "DRAGON CRS-33", "OBJECT_ID": "2025-186A", "EPOCH": "2025-12-18T16:01:23.678688", "MEAN_MOTION": 15.49654558, "ECCENTRICITY": 0.00031819, "INCLINATION": 51.6314, "RA_OF_ASC_NODE": 113.1238, "ARG_OF_PERICENTER": 267.6136, "MEAN_ANOMALY": 92.4488, "EPHEMERIS_TYPE": 0, "CLASSIFICATION_TYPE": "U", "NORAD_CAT_ID": 65304, "ELEMENT_SET_NO": 999, "REV_AT_EPOCH": 11, "BSTAR": 0.000138424, "MEAN_MOTION_DOT": 7.358e-05, "MEAN_MOTION_DDOT": 0}, "tle": {"line1": "1 65304U 25186A   25352.66763517  .00007358  00000+0  13842-3 0  9991", "line2": "2 65304  51.6314 113.1238 0003181 267.6136  92.4488 15.49654558   112"}}, "geometry": {"type": "Point", "coordinates": [151.13527984772193, 40.12603890207884]}}, {"type": "Feature", "properties": {"norad_id": 65586, "name": "PROGRESS-MS 32", "group": "stations", "lat": 40.126039279379235, "lon": 151.1352805340049, "alt_km": 414.04417933977584, "timestamp": "2025-12-19T10:49:59.950101+00:00", "meta": {"OBJECT_NAME": "PROGRESS-MS 32", "OBJECT_ID": "2025-204A", "EPOCH": "2025-12-18T16:01:23.678688", "MEAN_MOTION": 15.49654558, "ECCENTRICITY": 0.00031819, "INCLINATION": 51.6314, "RA_OF_ASC_NODE": 113.1238, "ARG_OF_PERICENTER": 267.6136, "MEAN_ANOMALY": 92.4488, "EPHEMERIS_TYPE": 0, "CLASSIFICATION_TYPE": "U", "NORAD_CAT_ID": 65586, "ELEMENT_SET_NO": 999, "REV_AT_EPOCH": 27, "BSTAR": 0.000138424, "MEAN_MOTION_DOT": 7.358e-05, "MEAN_MOTION_DDOT": 0}, "tle": {"line1": "1 65586U 25204A   25352.66763517  .00007358  00000+0  13842-3 0  9994", "line2": "2 65586  51.6314 113.1238 0003181 267.6136  92.4488 15.49654558   271"}}, "geometry": {"type": "Point", "coordinates": [151.1352805340049, 40.126039279379235]}}, {"type": "Feature", "properties": {"norad_id": 65616, "name": "CYGNUS NG-23", "group": "stations", "lat": 40.12603965668009, "lon": 151.13528122028876, "alt_km": 414.0441792951324, "timestamp": "2025-12-19T10:49:59.950111+00:00", "meta": {"OBJECT_NAME": "CYGNUS NG-23", "OBJECT_ID": "2025-208A", "EPOCH": "2025-12-18T16:01:23.678688", "MEAN_MOTION": 15.49654558, "ECCENTRICITY": 0.00031819, "INCLINATION": 51.6314, "RA_OF_ASC_NODE": 113.1238, "ARG_OF_PERICENTER": 267.6136, "MEAN_ANOMALY": 92.4488, "EPHEMERIS_TYPE": 0, "CLASSIFICATION_TYPE": "U", "NORAD_CAT_ID": 65616, "ELEMENT_SET_NO": 999, "REV_AT_EPOCH": 22, "BSTAR": 0.000138424, "MEAN_MOTION_DOT": 7.358e-05, "MEAN_MOTION_DDOT": 0}, "tle": {"line1": "1 65616U 25208A   25352.66763517  .00007358  00000+0  13842-3 0  9992", "line2": "2 65616  51.6314 113.1238 0003181 267.6136  92.4488 15.49654558   220"}}, "geometry": {"type": "Point", "coordinates": [151.13528122028876, 40.12603965668009]}}, {"type": "Feature", "properties": {"norad_id": 65729, "name": "DRAGONFLY", "group": "stations", "lat": -43.25639554777589, "lon": -30.45033435114002, "alt_km": 350.28269250837366, "timestamp": "2025-12-19T10:49:59.950121+00:00", "meta": {"OBJECT_NAME": "DRAGONFLY", "OBJECT_ID": "1998-067XH", "EPOCH": "2025-12-18T14:00:17.390304", "MEAN_MOTION": 15.73865471, "ECCENTRICITY": 0.0007166, "INCLINATION": 51.6249, "RA_OF_ASC_NODE": 105.7955, "ARG_OF_PERICENTER": 314.6867, "MEAN_ANOMALY": 45.3548, "EPHEMERIS_TYPE": 0, "CLASSIFICATION_TYPE": "U", "NORAD_CAT_ID": 65729, "ELEMENT_SET_NO": 999, "REV_AT_EPOCH": 1408, "BSTAR": 0.001129306, "MEAN_MOTION_DOT": 0.00166206, "MEAN_MOTION_DDOT": 0}, "tle": {"line1": "1 65729U 98067XH  25352.58353461  .00166206  00000+0  11293-2 0  9999", "line2": "2 65729  51.6249 105.7955 0007166 314.6867  45.3548 15.73865471 14084"}}, "geometry": {"type": "Point", "coordinates": [-30.45033435114002, -43.25639554777589]}}, {"type": "Feature", "properties": {"norad_id": 65731, "name": "1998-067XK", "group": "stations", "lat": 49.57560052448376, "lon": -145.3187215711796, "alt_km": 363.86995258091883, "timestamp": "2025-12-19T10:49:59.950132+00:00", "meta": {"OBJECT_NAME": "1998-067XK", "OBJECT_ID": "1998-067XK", "EPOCH": "2025-12-18T14:29:38.955840", "MEAN_MOTION": 15.66848038, "ECCENTRICITY": 0.0004791, "INCLINATION": 51.6292, "RA_OF_ASC_NODE": 107.4546, "ARG_OF_PERICENTER": 283.3796, "MEAN_ANOMALY": 76.6665, "EPHEMERIS_TYPE": 0, "CLASSIFICATION_TYPE": "U", "NORAD_CAT_ID": 65731, "ELEMENT_SET_NO": 999, "REV_AT_EPOCH": 1406, "BSTAR": 0.00083587979, "MEAN_MOTION_DOT": 0.00090673, "MEAN_MOTION_DDOT": 0}, "tle": {"line1": "1 65731U 98067XK  25352.60392310  .00090673  00000+0  83588-3 0  9992", "line2": "2 65731  51.6292 107.4546 0004791 283.3796  76.6665 15.66848038 14061"}}, "geometry": {"type": "Point", "coordinates": [-145.3187215711796, 49.57560052448376]}}, {"type": "Feature", "properties": {"norad_id": 65732, "name": "RSP-03", "group": "stations", "lat": 22.281970397209193, "lon": -96.66341779730021, "alt_km": 358.4851505994866, "timestamp": "2025-12-19T10:49:59.950142+00:00", "meta": {"OBJECT_NAME": "RSP-03", "OBJECT_ID": "1998-067XL", "EPOCH": "2025-12-18T12:48:30.107520", "MEAN_MOTION": 15.70075461, "ECCENTRICITY": 0.00056659, "INCLINATION": 51.6263, "RA_OF_ASC_NODE": 106.9735, "ARG_OF_PERICENTER": 289.7816, "MEAN_ANOMALY": 70.257, "EPHEMERIS_TYPE": 0, "CLASSIFICATION_TYPE": "U", "NORAD_CAT_ID": 65732, "ELEMENT_SET_NO": 999, "REV_AT_EPOCH": 1407, "BSTAR": 0.00097504064, "MEAN_MOTION_DOT": 0.00121384, "MEAN_MOTION_DDOT": 0}, "tle": {"line1": "1 65732U 98067XL  25352.53368180  .00121384  00000+0  97504-3 0  9990", "line2": "2 65732  51.6263 106.9735 0005665 289.7816  70.2570 15.70075461 14071"}}, "geometry": {"type": "Point", "coordinates": [-96.66341779730021, 22.281970397209193]}}, {"type": "Feature", "properties": {"norad_id": 65733, "name": "GHS-01", "group": "stations", "lat": -39.12707576803693, "lon": -39.25802488718742, "alt_km": 340.97651626148763, "timestamp": "2025-12-19T10:49:59.950157+00:00", "meta": {"OBJECT_NAME": "GHS-01", "OBJECT_ID": "1998-067XM", "EPOCH": "2025-12-18T21:41:04.642944", "MEAN_MOTION": 15.77485683, "ECCENTRICITY": 0.00079897, "INCLINATION": 51.6277, "RA_OF_ASC_NODE": 103.4385, "ARG_OF_PERICENTER": 320.4925, "MEAN_ANOMALY": 39.5492, "EPHEMERIS_TYPE": 0, "CLASSIFICATION_TYPE": "U", "NORAD_CAT_ID": 65733, "ELEMENT_SET_NO": 999, "REV_AT_EPOCH": 1415, "BSTAR": 0.001190379, "MEAN_MOTION_DOT": 0.00206465, "MEAN_MOTION_DDOT": 0}, "tle": {"line1": "1 65733U 98067XM  25352.90352596  .00206465  00000+0  11904-2 0  9999", "line2": "2 65733  51.6277 103.4385 0007989 320.4925  39.5492 15.77485683 14153"}}, "geometry": {"type": "Point", "coordinates": [-39.25802488718742, -39.12707576803693]}}, {"type": "Feature", "properties": {"norad_id": 65941, "name": "YOTSUBA-KULOVER", "group": "stations", "lat": 46.61900166080552, "lon": 163.19475941290239, "alt_km": 380.69106115194154, "timestamp": "2025-12-19T10:49:59.950168+00:00", "meta": {"OBJECT_NAME": "YOTSUBA-KULOVER", "OBJECT_ID": "1998-067XN", "EPOCH": "2025-12-18T09:56:54.884832", "MEAN_MOTION": 15.60208015, "ECCENTRICITY": 0.00016606, "INCLINATION": 51.6285, "RA_OF_ASC_NODE": 111.4386, "ARG_OF_PERICENTER": 311.4961, "MEAN_ANOMALY": 48.5889, "EPHEMERIS_TYPE": 0, "CLASSIFICATION_TYPE": "U", "NORAD_CAT_ID": 65941, "ELEMENT_SET_NO": 999, "REV_AT_EPOCH": 1074, "BSTAR": 0.0007945309, "MEAN_MOTION_DOT": 0.00066041, "MEAN_MOTION_DDOT": 0}, "tle": {"line1": "1 65941U 98067XN  25352.41452413  .00066041  00000+0  79453-3 0  9993", "line2": "2 65941  51.6285 111.4386 0001660 311.4961  48.5889 15.60208015 10748"}}, "geometry": {"type": "Point", "coordinates": [163.19475941290239, 46.61900166080552]}}, {"type": "Feature", "properties": {"norad_id": 65942, "name": "BOTAN", "group": "stations", "lat": 39.54082783447955, "lon": -115.50612642763615, "alt_km": 371.85466973632356, "timestamp": "2025-12-19T10:49:59.950178+00:00", "meta": {"OBJECT_NAME": "BOTAN", "OBJECT_ID": "1998-067XP", "EPOCH": "2025-12-18T09:45:54.006048", "MEAN_MOTION": 15.64050786, "ECCENTRICITY": 0.00028482, "INCLINATION": 51.6278, "RA_OF_ASC_NODE": 110.6371, "ARG_OF_PERICENTER": 287.2475, "MEAN_ANOMALY": 72.8208, "EPHEMERIS_TYPE": 0, "CLASSIFICATION_TYPE": "U", "NORAD_CAT_ID": 65942, "ELEMENT_SET_NO": 999, "REV_AT_EPOCH": 1075, "BSTAR": 0.0010814457, "MEAN_MOTION_DOT": 0.00105165, "MEAN_MOTION_DDOT": 0}, "tle": {"line1": "1 65942U 98067XP  25352.40687507  .00105165  00000+0  10814-2 0  9993", "line2": "2 65942  51.6278 110.6371 0002848 287.2475  72.8208 15.64050786 10755"}}, "geometry": {"type": "Point", "coordinates": [-115.50612642763615, 39.54082783447955]}}, {"type": "Feature", "properties": {"norad_id": 65943, "name": "E-KAGAKU-1", "group": "stations", "lat": 46.363392182644006, "lon": 162.41983692078765, "alt_km": 381.1762148804173, "timestamp": "2025-12-19T10:49:59.950189+00:00", "meta": {"OBJECT_NAME": "E-KAGAKU-1", "OBJECT_ID": "1998-067XQ", "EPOCH": "2025-12-18T08:24:49.666176", "MEAN_MOTION": 15.60193795, "ECCENTRICITY": 0.00013451, "INCLINATION": 51.6302, "RA_OF_ASC_NODE": 111.7666, "ARG_OF_PERICENTER": 249.8249, "MEAN_ANOMALY": 110.26, "EPHEMERIS_TYPE": 0, "CLASSIFICATION_TYPE": "U", "NORAD_CAT_ID": 65943, "ELEMENT_SET_NO": 999, "REV_AT_EPOCH": 1073, "BSTAR": 0.00084619625, "MEAN_MOTION_DOT": 0.00070368, "MEAN_MOTION_DDOT": 0}, "tle": {"line1": "1 65943U 98067XQ  25352.35057484  .00070368  00000+0  84620-3 0  9996", "line2": "2 65943  51.6302 111.7666 0001345 249.8249 110.2600 15.60193795 10732"}}, "geometry": {"type": "Point", "coordinates": [162.41983692078765, 46.363392182644006]}}]}